STARLINK-1434           
1 45712U 20035BH  26068.24137979  .00054112  00000+0  20295-2 0  9995
2 45712  53.0547  22.1128 0005343  88.0400 272.1210 15.26724568319325
STARLINK-32785          
1 62531U 25004W   26068.47711074  .00025032  00000+0  91582-3 0  9990
2 62531  42.9988 221.2873 0001386 240.6618 119.4095 15.27588924 66427
